[
  {
    "name": "KUIPER-00527",
    "noradId": "69269",
    "line1": "1 69269U 26118C   26176.54931744  .00029925  00000+0  87910-3 0  9993",
    "line2": "2 69269  51.8627  13.1997 0009512 202.6781 157.3785 15.34837978  5260"
  },
  {
    "name": "KUIPER-00562",
    "noradId": "69270",
    "line1": "1 69270U 26118D   26176.55946849  .00038146  00000+0  98221-3 0  9990",
    "line2": "2 69270  51.8720  12.5412 0001319 134.3702 225.7394 15.38854748  5277"
  },
  {
    "name": "KUIPER-00570",
    "noradId": "69271",
    "line1": "1 69271U 26118E   26174.14294476  .00489113  00000+0  13187-1 0  9996",
    "line2": "2 69271  51.8587  24.8191 0009050 241.2053 118.8024 15.35254459  4895"
  },
  {
    "name": "KUIPER-00572",
    "noradId": "69272",
    "line1": "1 69272U 26118F   26175.93749100  .00037149  00000+0  10092-2 0  9995",
    "line2": "2 69272  51.8646  15.8687 0006310 186.7298 173.3604 15.37197868  5176"
  },
  {
    "name": "KUIPER-00581",
    "noradId": "69273",
    "line1": "1 69273U 26118G   26175.94327701  .00013383  00000+0  37590-3 0  9993",
    "line2": "2 69273  51.8672  15.9025 0008522 204.2905 155.7680 15.36815566  5260"
  },
  {
    "name": "KUIPER-00584",
    "noradId": "69274",
    "line1": "1 69274U 26118H   26176.58335648 -.01331459  00000+0 -54558-1 0  9995",
    "line2": "2 69274  51.8666  13.1990 0012089 225.3572 225.8933 15.26748927  3861"
  },
  {
    "name": "KUIPER-00587",
    "noradId": "69275",
    "line1": "1 69275U 26118J   26176.26781988  .00047687  00000+0  13085-2 0  9998",
    "line2": "2 69275  51.8643  14.3229 0007715 210.4621 149.5918 15.36764133  5220"
  },
  {
    "name": "KUIPER-00590",
    "noradId": "69276",
    "line1": "1 69276U 26118K   26176.57210355  .00015345  00000+0  41191-3 0  9994",
    "line2": "2 69276  51.8695  12.6264 0003827 196.9369 163.1491 15.38126308  5276"
  },
  {
    "name": "KUIPER-00592",
    "noradId": "69277",
    "line1": "1 69277U 26118L   26176.56859990  .00039653  00000+0  10383-2 0  9994",
    "line2": "2 69277  51.8706  12.6054 0003195 162.8223 197.2873 15.38318004  5274"
  },
  {
    "name": "KUIPER-00593",
    "noradId": "69278",
    "line1": "1 69278U 26118M   26176.24471692  .00047551  00000+0  12441-2 0  9992",
    "line2": "2 69278  51.8705  14.1841 0003398 183.6758 176.4205 15.38258390  5284"
  },
  {
    "name": "KUIPER-00594",
    "noradId": "69279",
    "line1": "1 69279U 26118N   26176.55844341  .00046798  00000+0  12054-2 0  9994",
    "line2": "2 69279  51.8696  12.5386 0001339  75.9017 284.2119 15.38750643  5273"
  },
  {
    "name": "KUIPER-00595",
    "noradId": "69280",
    "line1": "1 69280U 26118P   26176.56118034  .00036250  00000+0  93813-3 0  9995",
    "line2": "2 69280  51.8699  12.5559 0001598 254.9472 105.1338 15.38723146  5307"
  },
  {
    "name": "KUIPER-00596",
    "noradId": "69281",
    "line1": "1 69281U 26118Q   26176.55409698  .00037919  00000+0  11582-2 0  9999",
    "line2": "2 69281  51.8633  13.2337 0010571 209.6685 150.3701 15.33478798  5268"
  },
  {
    "name": "KUIPER-00597",
    "noradId": "69282",
    "line1": "1 69282U 26118R   26176.52081423  .00018902  00000+0  51940-3 0  9993",
    "line2": "2 69282  51.8660  13.0250 0006595 201.9039 158.1666 15.37228089  5266"
  },
  {
    "name": "KUIPER-00599",
    "noradId": "69283",
    "line1": "1 69283U 26118S   26176.25639406  .00011164  00000+0  30941-3 0  9995",
    "line2": "2 69283  51.8701  14.2593 0005613 194.7435 165.3389 15.37435365  5220"
  },
  {
    "name": "KUIPER-00600",
    "noradId": "69284",
    "line1": "1 69284U 26118T   26176.52697136  .00036711  00000+0  10072-2 0  9997",
    "line2": "2 69284  51.8625  13.0633 0007742 197.3600 162.7123 15.36889546  5260"
  },
  {
    "name": "KUIPER-00601",
    "noradId": "69285",
    "line1": "1 69285U 26118U   26176.57630406  .00016286  00000+0  44123-3 0  9990",
    "line2": "2 69285  51.8711  12.6558 0004525 184.7909 175.3035 15.37789740  5275"
  },
  {
    "name": "KUIPER-00602",
    "noradId": "69286",
    "line1": "1 69286U 26118V   26176.37238200  .00044369  00000+0  11571-2 0  9998",
    "line2": "2 69286  51.8717  13.5395 0002203 174.2952 185.8060 15.38392742  5248"
  },
  {
    "name": "KUIPER-00603",
    "noradId": "69287",
    "line1": "1 69287U 26118W   26176.57774904  .00041651  00000+0  11077-2 0  9999",
    "line2": "2 69287  51.8650  12.6621 0004732 180.4914 179.6069 15.37810878  5270"
  },
  {
    "name": "KUIPER-00605",
    "noradId": "69288",
    "line1": "1 69288U 26118X   26176.52135046  .00038772  00000+0  10501-2 0  9994",
    "line2": "2 69288  51.8624  13.0288 0006775 195.1388 164.9397 15.37269437  5262"
  },
  {
    "name": "KUIPER-00606",
    "noradId": "69289",
    "line1": "1 69289U 26118Y   26176.57455011  .00033078  00000+0  87999-3 0  9997",
    "line2": "2 69289  51.8694  12.6450 0004542 180.7379 179.3602 15.37910864  5273"
  },
  {
    "name": "KUIPER-00607",
    "noradId": "69290",
    "line1": "1 69290U 26118Z   26176.57969931  .00014617  00000+0  39959-3 0  9991",
    "line2": "2 69290  51.8678  12.6754 0005740 197.4663 162.6127 15.37595921  5276"
  },
  {
    "name": "KUIPER-00608",
    "noradId": "69291",
    "line1": "1 69291U 26118AA  26175.82787010  .00027905  00000+0  81808-3 0  9999",
    "line2": "2 69291  51.8629  16.6144 0008002 205.0907 154.9691 15.34951207  5158"
  },
  {
    "name": "KUIPER-00610",
    "noradId": "69292",
    "line1": "1 69292U 26118AB  26176.37018768  .00051965  00000+0  13516-2 0  9991",
    "line2": "2 69292  51.8710  13.5262 0001982 168.9948 191.1083 15.38405395  5243"
  },
  {
    "name": "KUIPER-00613",
    "noradId": "69293",
    "line1": "1 69293U 26118AC  26176.55268140  .00036065  00000+0  10669-2 0  9993",
    "line2": "2 69293  51.8577  13.2148 0010435 212.6673 147.3668 15.34513353  5264"
  },
  {
    "name": "KUIPER-00618",
    "noradId": "69294",
    "line1": "1 69294U 26118AD  26176.55905008 -.00337858  00000+0 -93469-2 0  9990",
    "line2": "2 69294  51.8690  12.5402 0002789 144.4494 215.6680 15.37800777  5278"
  },
  {
    "name": "KUIPER-00620",
    "noradId": "69295",
    "line1": "1 69295U 26118AE  26176.56427255  .00038297  00000+0  10031-2 0  9992",
    "line2": "2 69295  51.8707  12.5761 0002226 139.6167 220.4986 15.38325921  5272"
  },
  {
    "name": "KUIPER-00423",
    "noradId": "69592",
    "line1": "1 69592U 26140A   26176.58335648 -.01925653  00000+0 -53250-1 0  9996",
    "line2": "2 69592  51.8821 358.0162 0014192 195.9434 269.2199 15.39708286  1306"
  },
  {
    "name": "KUIPER-00428",
    "noradId": "69593",
    "line1": "1 69593U 26140B   26176.58335648  .00005193  00000+0  15413-3 0  9993",
    "line2": "2 69593  51.8814 358.2121 0006729 323.3352  46.5089 15.36504440  2464"
  },
  {
    "name": "KUIPER-00481",
    "noradId": "69594",
    "line1": "1 69594U 26140C   26176.58335648 -.01974705  00000+0 -55854-1 0  9992",
    "line2": "2 69594  51.8800 358.0516 0011301 203.6273 243.7793 15.39176196  1963"
  },
  {
    "name": "KUIPER-00490",
    "noradId": "69595",
    "line1": "1 69595U 26140D   26176.58335648  .00006027  00000+0  17158-3 0  9990",
    "line2": "2 69595  51.8789 358.1521 0006055 256.3764 140.5838 15.37513551  2443"
  },
  {
    "name": "KUIPER-00493",
    "noradId": "69596",
    "line1": "1 69596U 26140E   26176.58335648  .00006316  00000+0  18680-3 0  9993",
    "line2": "2 69596  51.8813 358.2331 0006082 333.5365  25.9991 15.36216330  1929"
  },
  {
    "name": "KUIPER-00496",
    "noradId": "69597",
    "line1": "1 69597U 26140F   26176.58335648  .00008183  00000+0  24512-3 0  9999",
    "line2": "2 69597  51.8799 358.2494 0008170 338.2652  11.6099 15.35373839  2462"
  },
  {
    "name": "KUIPER-00513",
    "noradId": "69598",
    "line1": "1 69598U 26140G   26176.58335648  .00008147  00000+0  22712-3 0  9990",
    "line2": "2 69598  51.8820 358.1483 0006380 253.3251 147.7611 15.37654235  2317"
  },
  {
    "name": "KUIPER-00516",
    "noradId": "69599",
    "line1": "1 69599U 26140H   26176.58335648  .00006349  00000+0  18157-3 0  9991",
    "line2": "2 69599  51.8800 358.1656 0005843 272.9463 118.0231 15.37270386  2469"
  },
  {
    "name": "KUIPER-00517",
    "noradId": "69600",
    "line1": "1 69600U 26140J   26176.58335648  .00008254  00000+0  22241-3 0  9990",
    "line2": "2 69600  51.8788 358.0833 0010504 216.5989 214.6876 15.38668804  2027"
  },
  {
    "name": "KUIPER-00520",
    "noradId": "69601",
    "line1": "1 69601U 26140K   26176.58335648  .00005700  00000+0  16483-3 0  9995",
    "line2": "2 69601  51.8828 358.1807 0005438 277.1406 108.9381 15.37134534  2395"
  },
  {
    "name": "KUIPER-00522",
    "noradId": "69602",
    "line1": "1 69602U 26140L   26176.58335648 -.01911553  00000+0 -52766-1 0  9993",
    "line2": "2 69602  51.8803 358.0125 0014201 192.4187 274.4916 15.39736855  1965"
  },
  {
    "name": "KUIPER-00528",
    "noradId": "69603",
    "line1": "1 69603U 26140M   26176.58335648  .00006426  00000+0  18533-3 0  9991",
    "line2": "2 69603  51.8799 358.1845 0004411 283.0680  98.6673 15.36983945  1302"
  },
  {
    "name": "KUIPER-00532",
    "noradId": "69604",
    "line1": "1 69604U 26140N   26176.58335648  .00006792  00000+0  19814-3 0  9991",
    "line2": "2 69604  51.8798 358.2094 0004602 316.9938  52.4142 15.36524885  2464"
  },
  {
    "name": "KUIPER-00533",
    "noradId": "69605",
    "line1": "1 69605U 26140P   26176.58335648  .00017927  00000+0  48314-3 0  9991",
    "line2": "2 69605  51.8798 358.1246 0007673 242.9203 168.4458 15.37862840  1944"
  },
  {
    "name": "KUIPER-00534",
    "noradId": "69606",
    "line1": "1 69606U 26140Q   26176.58335648  .00012026  00000+0  30462-3 0  9992",
    "line2": "2 69606  51.8829 358.0037 0014839 190.8957 280.3329 15.40054973  2223"
  },
  {
    "name": "KUIPER-00537",
    "noradId": "69607",
    "line1": "1 69607U 26140R   26176.58335648  .00006666  00000+0  19932-3 0  9995",
    "line2": "2 69607  51.8816 358.2515 0007987 344.8781   6.4995 15.35766468  2190"
  }
]